NORAD_CAT_ID,OBJECT_NAME,OBJECT_TYPE,EPOCH,MEAN_MOTION,ECCENTRICITY,INCLINATION,RA_OF_ASC_NODE,ARG_OF_PERICENTER,MEAN_ANOMALY,BSTAR,MEAN_MOTION_DOT,MEAN_MOTION_DDOT,TLE_LINE0,TLE_LINE1,TLE_LINE2,SEMIMAJOR_AXIS,PERIOD,APOGEE,PERIGEE,DECAYED
54185.0,STARLINK-5235,PAYLOAD,2024-03-28 21:11:13,15.08841888,0.0001742,53.2152,314.7918,77.1673,282.9513,0.00032534,4.894e-05,0.0,0 STARLINK-5235,1 54185U 22141AE  24088.88279284  .00004894  00000-0  32534-3 0  9998,2 54185  53.2152 314.7918 0001742  77.1673 282.9513 15.08841888 78782,6917.875,95.437,540.945,538.535,0.0
54185.0,STARLINK-5235,PAYLOAD,2024-03-28 22:46:36,15.08838576,0.0001594,53.2147,314.4942,76.336,283.781,0.000107,1.415e-05,0.0,0 STARLINK-5235,1 54185U 22141AE  24088.94903349  .00001415  00000-0  10700-3 0  9998,2 54185  53.2147 314.4942 0001594  76.3360 283.7810 15.08838576 78564,6917.885,95.438,540.852,538.647,0.0
54185.0,STARLINK-5235,PAYLOAD,2024-03-29 08:18:55,15.08845487,0.000146,53.2149,312.7101,78.7731,281.3425,0.00035222,5.323e-05,0.0,0 STARLINK-5235,1 54185U 22141AE  24089.34647212  .00005323  00000-0  35222-3 0  9995,2 54185  53.2149 312.7101 0001460  78.7731 281.3425 15.08845487 78626,6917.864,95.437,540.739,538.719,0.0
54185.0,STARLINK-5235,PAYLOAD,2024-03-29 21:02:00,15.08849502,0.000141,53.2163,310.3301,80.5399,279.5752,0.00046133,7.064e-05,0.0,0 STARLINK-5235,1 54185U 22141AE  24089.87639035  .00007064  00000-0  46133-3 0  9994,2 54185  53.2163 310.3301 0001410  80.5399 279.5752 15.08849502 78707,6917.851,95.437,540.692,538.741,0.0
54185.0,STARLINK-5235,PAYLOAD,2024-03-30 00:12:46,15.08855979,0.0001179,53.2168,309.7325,95.0454,265.0673,0.00058957,9.112e-05,0.0,0 STARLINK-5235,1 54185U 22141AE  24090.00886650  .00009112  00000-0  58957-3 0  9991,2 54185  53.2168 309.7325 0001179  95.0454 265.0673 15.08855979 78959,6917.832,95.437,540.512,538.881,0.0
54185.0,STARLINK-5235,PAYLOAD,2024-03-30 08:09:41,15.08848313,4.5e-05,53.2166,308.2484,110.5316,249.5725,0.00021188,3.087e-05,0.0,0 STARLINK-5235,1 54185U 22141AE  24090.34006555  .00003087  00000-0  21188-3 0  9997,2 54185  53.2166 308.2484 0000450 110.5316 249.5725 15.08848313 79004,6917.855,95.437,540.031,539.409,0.0
54185.0,STARLINK-5235,PAYLOAD,2024-03-30 20:52:47,15.08842941,0.0001445,53.2172,305.8701,88.3673,271.7485,0.00016327,2.312e-05,0.0,0 STARLINK-5235,1 54185U 22141AE  24090.86999089  .00002312  00000-0  16327-3 0  9996,2 54185  53.2172 305.8701 0001445  88.3673 271.7485 15.08842941 79088,6917.871,95.437,540.736,538.737,0.0
54185.0,STARLINK-5235,PAYLOAD,2024-03-31 00:03:33,15.08845859,0.0001474,53.2174,305.2745,93.2024,266.9137,0.00023609,3.472e-05,0.0,0 STARLINK-5235,1 54185U 22141AE  24091.00246880  .00003472  00000-0  23609-3 0  9996,2 54185  53.2174 305.2745 0001474  93.2024 266.9137 15.08845859 78876,6917.862,95.437,540.747,538.708,0.0
54185.0,STARLINK-5235,PAYLOAD,2024-03-31 20:43:34,15.08846581,0.0001228,53.2168,301.4085,81.3593,278.7539,0.00019474,2.813e-05,0.0,0 STARLINK-5235,1 54185U 22141AE  24091.86358934  .00002813  00000-0  19474-3 0  9997,2 54185  53.2168 301.4085 0001228  81.3593 278.7539 15.08846581 79006,6917.86,95.437,540.575,538.876,0.0
54185.0,STARLINK-5235,PAYLOAD,2024-04-01 20:34:21,15.08840939,0.0001379,53.218,296.9473,84.0844,276.0305,0.00016331,2.312e-05,0.0,0 STARLINK-5235,1 54185U 22141AE  24092.85719343  .00002312  00000-0  16331-3 0  9995,2 54185  53.2180 296.9473 0001379  84.0844 276.0305 15.08840939 79389,6917.878,95.437,540.696,538.789,0.0
54185.0,STARLINK-5235,PAYLOAD,2024-04-02 14:03:36,15.08839121,0.0001381,53.2186,293.6816,97.3572,262.7577,3.4484e-05,2.61e-06,0.0,0 STARLINK-5235,1 54185U 22141AE  24093.58583497  .00000261  00000-0  34484-4 0  9996,2 54185  53.2186 293.6816 0001381  97.3572 262.7577 15.08839121 79269,6917.883,95.438,540.703,538.793,0.0
54185.0,STARLINK-5235,PAYLOAD,2024-04-02 22:00:31,15.08841468,0.0001382,53.2181,292.1935,92.8834,267.2316,7.2903e-05,8.73e-06,0.0,0 STARLINK-5235,1 54185U 22141AE  24093.91703462  .00000873  00000-0  72903-4 0  9996,2 54185  53.2181 292.1935 0001382  92.8834 267.2316 15.08841468 79316,6917.876,95.437,540.697,538.785,0.0
54185.0,STARLINK-5235,PAYLOAD,2024-04-02 23:35:54,15.0884232,0.0001364,53.2177,291.8954,90.692,269.4229,8.5771e-05,1.077e-05,0.0,0 STARLINK-5235,1 54185U 22141AE  24093.98327415  .00001077  00000-0  85771-4 0  9997,2 54185  53.2177 291.8954 0001364  90.6920 269.4229 15.08842320 79551,6917.873,95.437,540.682,538.795,0.0
54185.0,STARLINK-5235,PAYLOAD,2024-04-03 12:19:00,15.08840871,0.0001397,53.2171,289.5162,97.0007,263.1144,0.000104,1.368e-05,0.0,0 STARLINK-5235,1 54185U 22141AE  24094.51319552  .00001368  00000-0  10400-3 0  9999,2 54185  53.2171 289.5162 0001397  97.0007 263.1144 15.08840871 79403,6917.878,95.437,540.709,538.776,0.0
54185.0,STARLINK-5235,PAYLOAD,2024-04-03 21:51:18,15.08844744,0.0001409,53.2172,287.7322,92.8529,267.2625,0.00015109,2.118e-05,0.0,0 STARLINK-5235,1 54185U 22141AE  24094.91063337  .00002118  00000-0  15109-3 0  9995,2 54185  53.2172 287.7322 0001409  92.8529 267.2625 15.08844744 79466,6917.866,95.437,540.706,538.756,0.0
54185.0,STARLINK-5235,PAYLOAD,2024-04-04 12:09:46,15.0885674,0.0001299,53.216,285.0554,83.5157,276.5983,0.00030416,4.558e-05,0.0,0 STARLINK-5235,1 54185U 22141AE  24095.50678282  .00004558  00000-0  30416-3 0  9990,2 54185  53.2160 285.0554 0001299  83.5157 276.5983 15.08856740 79786,6917.829,95.436,540.593,538.796,0.0
54185.0,STARLINK-5235,PAYLOAD,2024-04-04 20:06:41,15.08857366,0.0001286,53.216,283.5676,80.1041,280.0097,0.00022564,3.307e-05,0.0,0 STARLINK-5235,1 54185U 22141AE  24095.83797987  .00003307  00000-0  22564-3 0  9996,2 54185  53.2160 283.5676 0001286  80.1041 280.0097 15.08857366 79607,6917.827,95.436,540.582,538.803,0.0
54185.0,STARLINK-5235,PAYLOAD,2024-04-05 12:00:33,15.0883583,0.0001272,53.2162,280.5938,92.1958,267.918,-7.7656e-05,-1.523e-05,0.0,0 STARLINK-5235,1 54185U 22141AE  24096.50038955 -.00001523  00000-0 -77656-4 0  9997,2 54185  53.2162 280.5938 0001272  92.1958 267.9180 15.08835830 79937,6917.893,95.438,540.638,538.878,0.0
54185.0,STARLINK-5235,PAYLOAD,2024-04-05 19:57:29,15.08836914,0.0001262,53.2156,279.1053,98.6442,261.4693,-0.0001006,-1.888e-05,0.0,0 STARLINK-5235,1 54185U 22141AE  24096.83159077 -.00001888  00000-0 -10060-3 0  9991,2 54185  53.2156 279.1053 0001262  98.6442 261.4693 15.08836914 79752,6917.89,95.438,540.628,538.882,0.0
54185.0,STARLINK-5235,PAYLOAD,2024-04-06 11:51:21,15.08837673,0.0001535,53.2178,276.1339,87.4517,272.6651,-7.2636e-05,-1.444e-05,0.0,0 STARLINK-5235,1 54185U 22141AE  24097.49399346 -.00001444  00000-0 -72636-4 0  9995,2 54185  53.2178 276.1339 0001535  87.4517 272.6651 15.08837673 79854,6917.888,95.438,540.814,538.691,0.0
54185.0,STARLINK-5235,PAYLOAD,2024-04-06 18:12:53,15.08841871,0.0001295,53.2173,274.9449,84.8792,275.2348,6.1423e-05,6.9e-06,0.0,0 STARLINK-5235,1 54185U 22141AE  24097.75895176  .00000690  00000-0  61423-4 0  9998,2 54185  53.2173 274.9449 0001295  84.8792 275.2348 15.08841871 80125,6917.875,95.437,540.636,538.844,0.0
54185.0,STARLINK-5235,PAYLOAD,2024-04-07 11:42:08,15.08835311,0.0001303,53.2168,271.6735,87.5043,272.6098,0.00023948,3.525e-05,0.0,0 STARLINK-5235,1 54185U 22141AE  24098.48759955  .00003525  00000-0  23948-3 0  9992,2 54185  53.2168 271.6735 0001303  87.5043 272.6098 15.08835311 80237,6917.895,95.438,540.661,538.858,0.0
54185.0,STARLINK-5235,PAYLOAD,2024-04-07 18:03:41,15.08838127,0.000131,53.2174,270.4832,92.8487,267.2655,0.00025005,3.694e-05,0.0,0 STARLINK-5235,1 54185U 22141AE  24098.75255923  .00003694  00000-0  25005-3 0  9991,2 54185  53.2174 270.4832 0001310  92.8487 267.2655 15.08838127 80044,6917.886,95.438,540.657,538.845,0.0
54185.0,STARLINK-5235,PAYLOAD,2024-04-08 11:32:55,15.08842102,0.0001278,53.2151,267.2119,93.8159,266.2979,0.0001731,2.468e-05,0.0,0 STARLINK-5235,1 54185U 22141AE  24099.48119860  .00002468  00000-0  17310-3 0  9999,2 54185  53.2151 267.2119 0001278  93.8159 266.2979 15.08842102 80159,6917.874,95.437,540.623,538.855,0.0
54185.0,STARLINK-5235,PAYLOAD,2024-04-08 17:54:27,15.08846381,0.0001192,53.2151,266.023,90.9649,269.148,0.00022201,3.248e-05,0.0,0 STARLINK-5235,1 54185U 22141AE  24099.74615625  .00003248  00000-0  22201-3 0  9990,2 54185  53.2151 266.0230 0001192  90.9649 269.1480 15.08846381 80429,6917.861,95.437,540.55,538.901,0.0
54185.0,STARLINK-5235,PAYLOAD,2024-04-08 21:05:14,15.0884732,0.0001309,53.214,265.4278,91.4532,268.661,0.00021773,3.18e-05,0.0,0 STARLINK-5235,1 54185U 22141AE  24099.87863528  .00003180  00000-0  21773-3 0  9999,2 54185  53.2140 265.4278 0001309  91.4532 268.6610 15.08847320 80219,6917.858,95.437,540.629,538.817,0.0
54185.0,STARLINK-5235,PAYLOAD,2024-04-09 17:45:15,15.08840053,0.0001304,53.2103,261.5598,89.3123,270.8018,9.3216e-05,1.196e-05,0.0,0 STARLINK-5235,1 54185U 22141AE  24100.73975815  .00001196  00000-0  93216-4 0  9997,2 54185  53.2103 261.5598 0001304  89.3123 270.8018 15.08840053 80579,6917.88,95.438,540.647,538.843,0.0
54185.0,STARLINK-5235,PAYLOAD,2024-04-10 03:17:34,15.08832612,0.0001387,53.2151,259.7771,86.8938,273.2212,0.00025217,3.727e-05,0.0,0 STARLINK-5235,1 54185U 22141AE  24101.13720297  .00003727  00000-0  25217-3 0  9991,2 54185  53.2151 259.7771 0001387  86.8938 273.2212 15.08832612 80633,6917.903,95.438,540.727,538.808,0.0
54185.0,STARLINK-5235,PAYLOAD,2024-04-10 11:14:29,15.08835055,0.0001687,53.2185,258.2923,94.0597,266.0588,-7.4494e-05,-1.473e-05,0.0,0 STARLINK-5235,1 54185U 22141AE  24101.46840199 -.00001473  00000-0 -74494-4 0  9991,2 54185  53.2185 258.2923 0001687  94.0597 266.0588 15.08835055 80458,6917.896,95.438,540.928,538.593,0.0
54185.0,STARLINK-5235,PAYLOAD,2024-04-10 20:46:49,15.08836249,0.0001636,53.2191,256.509,95.112,265.0059,-1.5894e-05,-5.41e-06,0.0,0 STARLINK-5235,1 54185U 22141AE  24101.86584643 -.00000541  00000-0 -15894-4 0  9998,2 54185  53.2191 256.5090 0001636  95.1120 265.0059 15.08836249 80514,6917.892,95.438,540.889,538.625,0.0
